{"spkid": "50581529", "covariance": {"epoch": "2456301.5", "data": [["7.500817566840638E-13", "-9.851760339953397E-13", "7.678163916267734E-12", "1.292441481506816E-12", "1.171248908906781E-10", "-2.426639072080284E-12"], ["-9.851760339953397E-13", "1.293956842248157E-12", "-1.009204111742991E-11", "-1.695064279392846E-12", "-1.538443955249315E-10", "3.165062007088707E-12"], ["7.678163916267734E-12", "-1.009204111742991E-11", "1.380724475854618E-10", "5.838545879840394E-12", "1.264298486448981E-9", "7.254557716943652E-11"], ["1.292441481506816E-12", "-1.695064279392846E-12", "5.838545879840394E-12", "1.43731683407186E-10", "5.267587082023685E-11", "1.073708942877948E-10"], ["1.171248908906781E-10", "-1.538443955249315E-10", "1.264298486448981E-9", "5.267587082023685E-11", "1.850388772821556E-8", "-3.819235567642719E-10"], ["-2.426639072080284E-12", "3.165062007088707E-12", "7.254557716943652E-11", "1.073708942877948E-10", "-3.819235567642719E-10", "1.259723426475243E-9"]], "elements": [{"units": null, "title": "eccentricity", "value": ".455957103494863", "sigma": 8.66072604741695e-07, "name": "e", "label": "e"}, {"label": "q", "value": ".7124029314544265", "title": "perihelion distance", "units": "au", "name": "q", "sigma": 1.13752223813346e-06}, {"title": "time of perihelion passage", "value": "2456448.397187162611", "units": "TDB", "sigma": 1.17504232938844e-05, "name": "tp", "label": "tp"}, {"label": "node", "sigma": 1.19888149292241e-05, "name": "om", "title": "longitude of the ascending node", "value": "11.63263863810658", "units": "deg"}, {"label": "peri", "name": "w", "sigma": 0.000136028995909753, "value": "90.5677240007473", "title": "argument of perihelion", "units": "deg"}, {"label": "i", "title": "inclination", "value": "6.775930234267814", "units": "deg", "sigma": 3.54925826966036e-05, "name": "i"}], "labels": ["e", "q", "tp", "node", "peri", "i"]}, "elements": [{"name": "e", "sigma": "8.7294E-7", "units": null, "title": "eccentricity", "value": ".4557123079966835", "label": "e"}, {"label": "a", "title": "semi-major axis", "value": "1.306697464086877", "units": "au", "sigma": "1.237E-8", "name": "a"}, {"name": "q", "sigma": "1.1348E-6", "value": ".7112193468744327", "title": "perihelion distance", "units": "au", "label": "q"}, {"label": "i", "sigma": "3.57E-5", "name": "i", "title": "inclination; angle with respect to x-y ecliptic plane", "value": "6.729774874406084", "units": "deg"}, {"units": "deg", "title": "longitude of the ascending node", "value": "11.45437579816225", "name": "om", "sigma": "1.2108E-5", "label": "node"}, {"label": "peri", "sigma": ".000136", "name": "w", "title": "argument of perihelion", "value": "91.03206865777925", "units": "deg"}, {"label": "M", "name": "ma", "sigma": "4.5762E-5", "units": "deg", "title": "mean anomaly", "value": "253.2245953304449"}, {"label": "tp", "units": "TDB", "title": "time of perihelion passage", "value": "2461362.319078814385", "name": "tp", "sigma": "7.1585E-5"}, {"sigma": "7.7472E-6", "name": "per", "units": "d", "title": "sidereal orbital period", "value": "545.5832132265284", "label": "period"}, {"label": "n", "units": "deg/d", "value": ".6598443487126252", "title": "mean motion", "sigma": "9.3696E-9", "name": "n"}, {"sigma": "1.8007E-8", "name": "ad", "value": "1.902175581299321", "title": "aphelion distance", "units": "au", "label": "Q"}], "epoch": "2461200.5"}